     3.04           N: GNSS NAV DATA    M: MIXED            RINEX VERSION / TYPE
ssrcrin-15.6.1x                         20250101 034500 UTC PGM / RUN BY / DATE 
    18                                                      LEAP SECONDS        
                                                            END OF HEADER       
C36 2025 01 01 03 00 00 2.457567024976E-04 5.374367617605E-12 0.000000000000E+00
     1.000000000000E+00 5.875000000000E+00 4.556261215139E-09 5.254312687214E-02
     3.483146429062E-07 4.321470623836E-04 4.283152520657E-06 5.282639144897E+03
     2.700000000000E+05-3.864988684654E-08 1.787761386752E+00-4.190951585770E-09
     9.452842765530E-01 2.640312500000E+02-7.688780410280E-01-7.065651455601E-09
     1.657211886670E-10 0.000000000000E+00 9.910000000000E+02 0.000000000000E+00
     2.000000000000E+00 0.000000000000E+00-2.060000000000E-08-2.060000000000E-08
     2.734080000000E+05 1.000000000000E+00
E15 2025 01 01 03 40 00-1.483901869506E-04-2.259525899717E-12 0.000000000000E+00
     7.300000000000E+01 1.457187500000E+02 2.719756145903E-09 2.470255194833E+00
     6.888061761856E-06 4.368817899376E-04-2.048909664154E-08 5.440612171173E+03
     2.724000000000E+05 3.539025783539E-08-1.775757324677E+00 8.940696716309E-08
     9.996236195933E-01 3.578750000000E+02-1.181533363173E+00-5.709523538859E-09
     3.060841782060E-10 5.170000000000E+02 2.347000000000E+03
     3.120000000000E+00 0.000000000000E+00 2.793967723846E-09 3.725290298462E-09
     2.734550000000E+05
E15 2025 01 01 03 40 00-1.483901869506E-04-2.259525899717E-12 0.000000000000E+00
     7.300000000000E+01 1.457187500000E+02 2.719756145903E-09 2.470255194833E+00
     6.888061761856E-06 4.368817899376E-04-2.048909664154E-08 5.440612171173E+03
     2.724000000000E+05 3.539025783539E-08-1.775757324677E+00 8.940696716309E-08
     9.996236195933E-01 3.578750000000E+02-1.181533363173E+00-5.709523538859E-09
     3.060841782060E-10 5.170000000000E+02 2.347000000000E+03
     3.120000000000E+00 0.000000000000E+00 2.561137080193E-09 3.725290298462E-09
     2.734560000000E+05
S36 2025 01 01 03 57 52 0.000000000000E+00 0.000000000000E+00 2.734770000000E+05
     4.200368800000E+04 0.000000000000E+00 0.000000000000E+00 6.300000000000E+01
     3.674846960000E+03 0.000000000000E+00 0.000000000000E+00 3.276700000000E+04
     0.000000000000E+00 0.000000000000E+00 0.000000000000E+00 2.460000000000E+02
S21 2025 01 01 03 57 52 0.000000000000E+00 0.000000000000E+00 2.734800000000E+05
     4.200468400000E+04 0.000000000000E+00 0.000000000000E+00 6.300000000000E+01
    -3.674932960000E+03 0.000000000000E+00 0.000000000000E+00 3.276700000000E+04
     0.000000000000E+00 0.000000000000E+00 0.000000000000E+00 1.910000000000E+02
E15 2025 01 01 03 40 00-1.483915257268E-04-2.245315045002E-12 0.000000000000E+00
     7.300000000000E+01 1.457187500000E+02 2.719756145903E-09 2.470255194833E+00
     6.888061761856E-06 4.368817899376E-04-2.048909664154E-08 5.440612171173E+03
     2.724000000000E+05 3.539025783539E-08-1.775757324677E+00 8.940696716309E-08
     9.996236195933E-01 3.578750000000E+02-1.181533363173E+00-5.709523538859E-09
     3.060841782060E-10 2.580000000000E+02 2.347000000000E+03
     3.120000000000E+00 0.000000000000E+00 2.561137080193E-09 0.000000000000E+00
     2.734900000000E+05
S44 2025 01 01 03 58 56 8.400529623032E-07 0.000000000000E+00 2.735120000000E+05
     7.337343840000E+03-4.906250000000E-04-2.375000000000E-07 6.300000000000E+01
     4.149923984000E+04-3.117500000000E-03-7.500000000000E-08 3.276700000000E+04
    -7.981756000000E+02-1.278040000000E-01 2.062500000000E-06 6.000000000000E+01
E34 2025 01 01 03 40 00-1.550231245346E-04-2.202682480856E-12 0.000000000000E+00
     7.300000000000E+01 1.568437500000E+02 2.776187067906E-09-2.057792442446E+00
     7.437542080879E-06 1.887875841931E-04 4.284083843231E-08 5.440608554840E+03
     2.724000000000E+05-6.146728992462E-08-1.777551137271E+00 2.235174179077E-08
     9.994971239928E-01 3.570000000000E+02-2.154784218315E+00-5.663807348881E-09
     3.482287908412E-10 5.170000000000E+02 2.347000000000E+03
     3.120000000000E+00 0.000000000000E+00 4.656612873077E-10 2.095475792885E-09
     2.735150000000E+05
E34 2025 01 01 03 40 00-1.550231245346E-04-2.202682480856E-12 0.000000000000E+00
     7.300000000000E+01 1.568437500000E+02 2.776187067906E-09-2.057792442446E+00
     7.437542080879E-06 1.887875841931E-04 4.284083843231E-08 5.440608554840E+03
     2.724000000000E+05-6.146728992462E-08-1.777551137271E+00 2.235174179077E-08
     9.994971239928E-01 3.570000000000E+02-2.154784218315E+00-5.663807348881E-09
     3.482287908412E-10 5.170000000000E+02 2.347000000000E+03
     3.120000000000E+00 0.000000000000E+00 6.984919309616E-10 2.561137080193E-09
     2.735160000000E+05
S23 2025 01 01 03 58 56 0.000000000000E+00 0.000000000000E+00 2.735380000000E+05
     3.866796400000E+04 0.000000000000E+00 0.000000000000E+00 6.300000000000E+01
     1.681330800000E+04 0.000000000000E+00 0.000000000000E+00 3.276700000000E+04
     0.000000000000E+00 0.000000000000E+00 0.000000000000E+00 1.000000000000E+02
S27 2025 01 01 04 00 00 2.165324985981E-07 7.275957614183E-11 2.735740000000E+05
     2.417774528000E+04-3.343750000000E-03-1.750000000000E-07 3.100000000000E+01
     3.451958424000E+04-4.562500000000E-05 2.500000000000E-07 4.096000000000E+03
     4.354224000000E+02-2.578800000000E-02-2.312500000000E-06 5.400000000000E+01
S28 2025 01 01 04 00 00 1.620501279831E-07 6.821210263297E-11 2.735740000000E+05
     5.121956160000E+03-2.594375000000E-03-7.500000000000E-08 6.300000000000E+01
     4.183600824000E+04-2.556250000000E-04 1.250000000000E-07 3.276700000000E+04
    -2.221080000000E+01 8.640000000000E-04 1.250000000000E-07 5.400000000000E+01
E34 2025 01 01 03 40 00-1.550250453874E-04-2.202682480856E-12 0.000000000000E+00
     7.300000000000E+01 1.568437500000E+02 2.776187067906E-09-2.057792442446E+00
     7.437542080879E-06 1.887875841931E-04 4.284083843231E-08 5.440608554840E+03
     2.724000000000E+05-6.146728992462E-08-1.777551137271E+00 2.235174179077E-08
     9.994971239928E-01 3.570000000000E+02-2.154784218315E+00-5.663807348881E-09
     3.482287908412E-10 2.580000000000E+02 2.347000000000E+03
     3.120000000000E+00 0.000000000000E+00 6.984919309616E-10 0.000000000000E+00
     2.735900000000E+05
